{{Infobox Planet  
| name = 683 Lanzia
| image = 
| caption = 
| discovery=yes | physical_characteristics = yes | bgcolour=#FFFFC0
| discovery_ref = 
| discoverer = [[马克斯·沃夫|马克斯·沃夫]]
| discovery_site = [[海德堡|海德堡]]（[[天文台编号列表|024]]）
| discovered =  1909年7月23日
| mp_name = 683
| alt_names = 1909 HC
| named_after = 海因里希·蓝兹
| mp_category=[[小行星带|主带小行星]]
| orbit_ref = <ref>[http://ssd.jpl.nasa.gov/sbdb.cgi?sstr=683 683 Lanzia (1909 HC)]</ref>
| epoch = 2011年8月27日
| semimajor= 3.115009238821523AU
| perihelion=2.945288820075678AU
| aphelion= 3.284729657567367[[天文单位|AU]]
| eccentricity =0.05448472403569939			
| period =2008.109706968929[[日|地球日]]<br>5.50[[年|地球年]] 
| inclination=18.50546616796619[[角度|°]]
| asc_node=259.7572768877931°
| arg_peri=283.5680777372803°
| mean_anomaly=316.6017548904493°
| avg_speed=
 | dimensions=83.04千米
 | mass=
 | density=
 | surface_grav=
 | escape_velocity=
 | rotation=8.630小时
 | spectral_type=
 | magnitude=
 | abs_magnitude=8.10
 | albedo=0.1474
 | single_temperature=
}}
'''小行星683'''（'''683 Lanzia'''），是由[[德国|德国]][[天文学家|天文学家]][[马克斯·沃夫|马克斯·沃夫]]于1909年7月23日在德国[[海德堡|海德堡]]发现的[[小行星带|主带]][[小行星|小行星]]。

小行星683以为海德堡科学院的成立提供资金的德国工业家海因里希·蓝兹命名。

== 参考资料 ==
{{Reflist}}

{{Minor Planet Number|(682)[[小行星682|小行星682]]|(684)[[小行星684|小行星684]]}}

[[Category:小行星带天体|Category:小行星带天体]]
[[Category:1909年发现的小行星|Category:1909年发现的小行星]]
[[Category:以人名命名的小行星|Category:以人名命名的小行星]]